ONEWEB-0397             
1 50477U 21132J   26033.27354192  .00000011  00000+0 -45644-5 0  9999
2 50477  87.9213   2.2346 0001888  76.6616 283.4727 13.18687213203838
ONEWEB-0398             
1 50478U 21132K   26033.08954643  .00000318  00000+0  86128-3 0  9995
2 50478  87.8823  47.9349 0002064 101.8398 258.2962 13.11418195197904
ONEWEB-0399             
1 50479U 21132L   26033.07598169 -.00000311  00000+0 -91455-3 0  9996
2 50479  87.8820  47.9483 0002199  79.8773 280.2603 13.11417902197891
ONEWEB-0400             
1 50480U 21132M   26032.94860798  .00000015  00000+0  41078-5 0  9990
2 50480  87.9210   2.2893 0001903  87.8351 272.2999 13.18686512203786
ONEWEB-0401             
1 50481U 21132N   26033.29663363 -.00000012  00000+0 -63268-4 0  9992
2 50481  87.9213   2.2158 0001717  77.7981 282.3343 13.18684214203832
ONEWEB-0402             
1 50482U 21132P   26032.95685085 -.00000015  00000+0 -70018-4 0  9994
2 50482  87.9209   2.2757 0001544  67.0138 293.1157 13.18686021203816
ONEWEB-0403             
1 50483U 21132Q   26033.28510088  .00000036  00000+0  58773-4 0  9997
2 50483  87.9213   2.2328 0001940  82.9915 277.1438 13.18687195203812
ONEWEB-0404             
1 50484U 21132R   26033.05732212 -.00000399  00000+0 -11623-2 0  9993
2 50484  87.8814  47.9608 0002181  88.3847 271.7531 13.11415044197987
ONEWEB-0405             
1 50485U 21132S   26032.92056089  .00000010  00000+0 -64624-5 0  9991
2 50485  87.9213   2.2889 0001800  74.7460 285.3872 13.18687697204164
ONEWEB-0406             
1 50486U 21132T   26033.29004172  .00000001  00000+0 -30187-4 0  9995
2 50486  87.9215   2.2415 0002315  79.6486 280.4907 13.18683257203843
ONEWEB-0407             
1 50487U 21132U   26033.28344817  .00000053  00000+0  10270-3 0  9994
2 50487  87.9215   2.2259 0001662  82.5234 277.6087 13.18687069203783
ONEWEB-0409             
1 50488U 21132V   26033.28452127 -.00000300  00000+0 -88243-3 0  9991
2 50488  87.8831  47.8924 0002233  93.8892 266.2492 13.11415751197901
ONEWEB-0412             
1 50489U 21132W   26033.27190065  .00000022  00000+0  22144-4 0  9999
2 50489  87.9215   2.2419 0001694  73.8984 286.2334 13.18685987203871
ONEWEB-0413             
1 50490U 21132X   26033.27683375 -.00000008  00000+0 -52569-4 0  9992
2 50490  87.9205   2.2485 0001540  78.0381 282.0923 13.18688365203818
ONEWEB-0414             
1 50491U 21132Y   26032.95850291 -.00000003  00000+0 -40747-4 0  9990
2 50491  87.9212   2.2800 0001883  76.2902 283.8440 13.18686392203807
ONEWEB-0417             
1 50492U 21132Z   26033.27024437 -.00000070  00000+0 -21078-3 0  9991
2 50492  87.9204   2.2489 0002065  82.6413 277.4953 13.18686600203825
ONEWEB-0418             
1 50493U 21132AA  26033.20413906  .00000038  00000+0  64288-4 0  9991
2 50493  87.9213   2.2491 0002336  84.0197 276.1202 13.18686854203874
