[{"OBJECT_NAME":"ONEWEB-0397","OBJECT_ID":"2021-132J","EPOCH":"2026-02-02T06:33:54.021888","MEAN_MOTION":13.18687213,"ECCENTRICITY":0.00018881,"INCLINATION":87.9213,"RA_OF_ASC_NODE":2.2346,"ARG_OF_PERICENTER":76.6616,"MEAN_ANOMALY":283.4727,"EPHEMERIS_TYPE":0,"CLASSIFICATION_TYPE":"U","NORAD_CAT_ID":50477,"ELEMENT_SET_NO":999,"REV_AT_EPOCH":20383,"BSTAR":-4.564362e-6,"MEAN_MOTION_DOT":1.1e-7,"MEAN_MOTION_DDOT":0},{"OBJECT_NAME":"ONEWEB-0398","OBJECT_ID":"2021-132K","EPOCH":"2026-02-02T02:08:56.811552","MEAN_MOTION":13.11418195,"ECCENTRICITY":0.00020644,"INCLINATION":87.8823,"RA_OF_ASC_NODE":47.9349,"ARG_OF_PERICENTER":101.8398,"MEAN_ANOMALY":258.2962,"EPHEMERIS_TYPE":0,"CLASSIFICATION_TYPE":"U","NORAD_CAT_ID":50478,"ELEMENT_SET_NO":999,"REV_AT_EPOCH":19790,"BSTAR":0.00086127742,"MEAN_MOTION_DOT":3.18e-6,"MEAN_MOTION_DDOT":0},{"OBJECT_NAME":"ONEWEB-0399","OBJECT_ID":"2021-132L","EPOCH":"2026-02-02T01:49:24.818016","MEAN_MOTION":13.11417902,"ECCENTRICITY":0.00021991,"INCLINATION":87.882,"RA_OF_ASC_NODE":47.9483,"ARG_OF_PERICENTER":79.8773,"MEAN_ANOMALY":280.2603,"EPHEMERIS_TYPE":0,"CLASSIFICATION_TYPE":"U","NORAD_CAT_ID":50479,"ELEMENT_SET_NO":999,"REV_AT_EPOCH":19789,"BSTAR":-0.00091455406,"MEAN_MOTION_DOT":-3.11e-6,"MEAN_MOTION_DDOT":0},{"OBJECT_NAME":"ONEWEB-0400","OBJECT_ID":"2021-132M","EPOCH":"2026-02-01T22:45:59.729472","MEAN_MOTION":13.18686512,"ECCENTRICITY":0.00019037,"INCLINATION":87.921,"RA_OF_ASC_NODE":2.2893,"ARG_OF_PERICENTER":87.8351,"MEAN_ANOMALY":272.2999,"EPHEMERIS_TYPE":0,"CLASSIFICATION_TYPE":"U","NORAD_CAT_ID":50480,"ELEMENT_SET_NO":999,"REV_AT_EPOCH":20378,"BSTAR":4.107763e-6,"MEAN_MOTION_DOT":1.5e-7,"MEAN_MOTION_DDOT":0},{"OBJECT_NAME":"ONEWEB-0401","OBJECT_ID":"2021-132N","EPOCH":"2026-02-02T07:07:09.145632","MEAN_MOTION":13.18684214,"ECCENTRICITY":0.00017171,"INCLINATION":87.9213,"RA_OF_ASC_NODE":2.2158,"ARG_OF_PERICENTER":77.7981,"MEAN_ANOMALY":282.3343,"EPHEMERIS_TYPE":0,"CLASSIFICATION_TYPE":"U","NORAD_CAT_ID":50481,"ELEMENT_SET_NO":999,"REV_AT_EPOCH":20383,"BSTAR":-6.3267891e-5,"MEAN_MOTION_DOT":-1.2e-7,"MEAN_MOTION_DDOT":0},{"OBJECT_NAME":"ONEWEB-0402","OBJECT_ID":"2021-132P","EPOCH":"2026-02-01T22:57:51.913440","MEAN_MOTION":13.18686021,"ECCENTRICITY":0.00015442,"INCLINATION":87.9209,"RA_OF_ASC_NODE":2.2757,"ARG_OF_PERICENTER":67.0138,"MEAN_ANOMALY":293.1157,"EPHEMERIS_TYPE":0,"CLASSIFICATION_TYPE":"U","NORAD_CAT_ID":50482,"ELEMENT_SET_NO":999,"REV_AT_EPOCH":20381,"BSTAR":-7.001768e-5,"MEAN_MOTION_DOT":-1.5e-7,"MEAN_MOTION_DDOT":0},{"OBJECT_NAME":"ONEWEB-0403","OBJECT_ID":"2021-132Q","EPOCH":"2026-02-02T06:50:32.716032","MEAN_MOTION":13.18687195,"ECCENTRICITY":0.00019406,"INCLINATION":87.9213,"RA_OF_ASC_NODE":2.2328,"ARG_OF_PERICENTER":82.9915,"MEAN_ANOMALY":277.1438,"EPHEMERIS_TYPE":0,"CLASSIFICATION_TYPE":"U","NORAD_CAT_ID":50483,"ELEMENT_SET_NO":999,"REV_AT_EPOCH":20381,"BSTAR":5.8773202e-5,"MEAN_MOTION_DOT":3.6e-7,"MEAN_MOTION_DDOT":0},{"OBJECT_NAME":"ONEWEB-0404","OBJECT_ID":"2021-132R","EPOCH":"2026-02-02T01:22:32.631168","MEAN_MOTION":13.11415044,"ECCENTRICITY":0.00021813,"INCLINATION":87.8814,"RA_OF_ASC_NODE":47.9608,"ARG_OF_PERICENTER":88.3847,"MEAN_ANOMALY":271.7531,"EPHEMERIS_TYPE":0,"CLASSIFICATION_TYPE":"U","NORAD_CAT_ID":50484,"ELEMENT_SET_NO":999,"REV_AT_EPOCH":19798,"BSTAR":-0.0011623056,"MEAN_MOTION_DOT":-3.99e-6,"MEAN_MOTION_DDOT":0},{"OBJECT_NAME":"ONEWEB-0405","OBJECT_ID":"2021-132S","EPOCH":"2026-02-01T22:05:36.460896","MEAN_MOTION":13.18687697,"ECCENTRICITY":0.00018008,"INCLINATION":87.9213,"RA_OF_ASC_NODE":2.2889,"ARG_OF_PERICENTER":74.746,"MEAN_ANOMALY":285.3872,"EPHEMERIS_TYPE":0,"CLASSIFICATION_TYPE":"U","NORAD_CAT_ID":50485,"ELEMENT_SET_NO":999,"REV_AT_EPOCH":20416,"BSTAR":-6.46244e-6,"MEAN_MOTION_DOT":1.0e-7,"MEAN_MOTION_DDOT":0},{"OBJECT_NAME":"ONEWEB-0406","OBJECT_ID":"2021-132T","EPOCH":"2026-02-02T06:57:39.604608","MEAN_MOTION":13.18683257,"ECCENTRICITY":0.00023151,"INCLINATION":87.9215,"RA_OF_ASC_NODE":2.2415,"ARG_OF_PERICENTER":79.6486,"MEAN_ANOMALY":280.4907,"EPHEMERIS_TYPE":0,"CLASSIFICATION_TYPE":"U","NORAD_CAT_ID":50486,"ELEMENT_SET_NO":999,"REV_AT_EPOCH":20384,"BSTAR":-3.0187239e-5,"MEAN_MOTION_DOT":1.0e-8,"MEAN_MOTION_DDOT":0},{"OBJECT_NAME":"ONEWEB-0407","OBJECT_ID":"2021-132U","EPOCH":"2026-02-02T06:48:09.921888","MEAN_MOTION":13.18687069,"ECCENTRICITY":0.00016629,"INCLINATION":87.9215,"RA_OF_ASC_NODE":2.2259,"ARG_OF_PERICENTER":82.5234,"MEAN_ANOMALY":277.6087,"EPHEMERIS_TYPE":0,"CLASSIFICATION_TYPE":"U","NORAD_CAT_ID":50487,"ELEMENT_SET_NO":999,"REV_AT_EPOCH":20378,"BSTAR":0.00010269628,"MEAN_MOTION_DOT":5.3e-7,"MEAN_MOTION_DDOT":0},{"OBJECT_NAME":"ONEWEB-0409","OBJECT_ID":"2021-132V","EPOCH":"2026-02-02T06:49:42.637728","MEAN_MOTION":13.11415751,"ECCENTRICITY":0.00022336,"INCLINATION":87.8831,"RA_OF_ASC_NODE":47.8924,"ARG_OF_PERICENTER":93.8892,"MEAN_ANOMALY":266.2492,"EPHEMERIS_TYPE":0,"CLASSIFICATION_TYPE":"U","NORAD_CAT_ID":50488,"ELEMENT_SET_NO":999,"REV_AT_EPOCH":19790,"BSTAR":-0.00088243435,"MEAN_MOTION_DOT":-3.0e-6,"MEAN_MOTION_DDOT":0},{"OBJECT_NAME":"ONEWEB-0412","OBJECT_ID":"2021-132W","EPOCH":"2026-02-02T06:31:32.216160","MEAN_MOTION":13.18685987,"ECCENTRICITY":0.0001694,"INCLINATION":87.9215,"RA_OF_ASC_NODE":2.2419,"ARG_OF_PERICENTER":73.8984,"MEAN_ANOMALY":286.2334,"EPHEMERIS_TYPE":0,"CLASSIFICATION_TYPE":"U","NORAD_CAT_ID":50489,"ELEMENT_SET_NO":999,"REV_AT_EPOCH":20387,"BSTAR":2.2144348e-5,"MEAN_MOTION_DOT":2.2e-7,"MEAN_MOTION_DDOT":0},{"OBJECT_NAME":"ONEWEB-0413","OBJECT_ID":"2021-132X","EPOCH":"2026-02-02T06:38:38.436000","MEAN_MOTION":13.18688365,"ECCENTRICITY":0.000154,"INCLINATION":87.9205,"RA_OF_ASC_NODE":2.2485,"ARG_OF_PERICENTER":78.0381,"MEAN_ANOMALY":282.0923,"EPHEMERIS_TYPE":0,"CLASSIFICATION_TYPE":"U","NORAD_CAT_ID":50490,"ELEMENT_SET_NO":999,"REV_AT_EPOCH":20381,"BSTAR":-5.2568784e-5,"MEAN_MOTION_DOT":-8.0e-8,"MEAN_MOTION_DDOT":0},{"OBJECT_NAME":"ONEWEB-0414","OBJECT_ID":"2021-132Y","EPOCH":"2026-02-01T23:00:14.651424","MEAN_MOTION":13.18686392,"ECCENTRICITY":0.00018836,"INCLINATION":87.9212,"RA_OF_ASC_NODE":2.28,"ARG_OF_PERICENTER":76.2902,"MEAN_ANOMALY":283.844,"EPHEMERIS_TYPE":0,"CLASSIFICATION_TYPE":"U","NORAD_CAT_ID":50491,"ELEMENT_SET_NO":999,"REV_AT_EPOCH":20380,"BSTAR":-4.0746588e-5,"MEAN_MOTION_DOT":-3.0e-8,"MEAN_MOTION_DDOT":0},{"OBJECT_NAME":"ONEWEB-0417","OBJECT_ID":"2021-132Z","EPOCH":"2026-02-02T06:29:09.113568","MEAN_MOTION":13.186866,"ECCENTRICITY":0.00020659,"INCLINATION":87.9204,"RA_OF_ASC_NODE":2.2489,"ARG_OF_PERICENTER":82.6413,"MEAN_ANOMALY":277.4953,"EPHEMERIS_TYPE":0,"CLASSIFICATION_TYPE":"U","NORAD_CAT_ID":50492,"ELEMENT_SET_NO":999,"REV_AT_EPOCH":20382,"BSTAR":-0.00021078466,"MEAN_MOTION_DOT":-7.0e-7,"MEAN_MOTION_DDOT":0},{"OBJECT_NAME":"ONEWEB-0418","OBJECT_ID":"2021-132AA","EPOCH":"2026-02-02T04:53:57.614784","MEAN_MOTION":13.18686854,"ECCENTRICITY":0.00023366,"INCLINATION":87.9213,"RA_OF_ASC_NODE":2.2491,"ARG_OF_PERICENTER":84.0197,"MEAN_ANOMALY":276.1202,"EPHEMERIS_TYPE":0,"CLASSIFICATION_TYPE":"U","NORAD_CAT_ID":50493,"ELEMENT_SET_NO":999,"REV_AT_EPOCH":20387,"BSTAR":6.4288188e-5,"MEAN_MOTION_DOT":3.8e-7,"MEAN_MOTION_DDOT":0}]
